{
    "links": {
        "self": "http://www.neowsapp.com/rest/v1/neo/3825229?api_key=iIulBulltgU6a56xZRHN4H3l9WmuAYTsLGpBGhQ2"
    },
    "id": "3825229",
    "neo_reference_id": "3825229",
    "name": "(2018 LK5)",
    "designation": "2018 LK5",
    "nasa_jpl_url": "http://ssd.jpl.nasa.gov/sbdb.cgi?sstr=3825229",
    "absolute_magnitude_h": 25.8,
    "estimated_diameter": {
        "kilometers": {
            "estimated_diameter_min": 0.0183888672,
            "estimated_diameter_max": 0.0411187571
        },
        "meters": {
            "estimated_diameter_min": 18.388867207,
            "estimated_diameter_max": 41.1187571041
        },
        "miles": {
            "estimated_diameter_min": 0.0114263088,
            "estimated_diameter_max": 0.0255500032
        },
        "feet": {
            "estimated_diameter_min": 60.3309310875,
            "estimated_diameter_max": 134.9040630575
        }
    },
    "is_potentially_hazardous_asteroid": false,
    "close_approach_data": [
        {
            "close_approach_date": "2018-06-21",
            "close_approach_date_full": "2018-Jun-21 09:49",
            "epoch_date_close_approach": 1529574540000,
            "relative_velocity": {
                "kilometers_per_second": "6.6237499411",
                "kilometers_per_hour": "23845.4997880234",
                "miles_per_hour": "14816.666243286"
            },
            "miss_distance": {
                "astronomical": "0.0629901506",
                "lunar": "24.5031685834",
                "kilometers": "9423192.360739222",
                "miles": "5855300.2190843836"
            },
            "orbiting_body": "Earth"
        },
        {
            "close_approach_date": "2136-06-12",
            "close_approach_date_full": "2136-Jun-12 22:47",
            "epoch_date_close_approach": 5252597220000,
            "relative_velocity": {
                "kilometers_per_second": "7.4152898491",
                "kilometers_per_hour": "26695.0434567022",
                "miles_per_hour": "16587.2618634159"
            },
            "miss_distance": {
                "astronomical": "0.0823170758",
                "lunar": "32.0213424862",
                "kilometers": "12314459.204308546",
                "miles": "7651850.1285520948"
            },
            "orbiting_body": "Earth"
        }
    ],
    "orbital_data": {
        "orbit_id": "2",
        "orbit_determination_date": "2018-07-15 06:54:02",
        "first_observation_date": "2018-06-04",
        "last_observation_date": "2018-07-14",
        "data_arc_in_days": 40,
        "observations_used": 22,
        "orbit_uncertainty": "7",
        "minimum_orbit_intersection": ".0630231",
        "jupiter_tisserand_invariant": "3.667",
        "epoch_osculation": "2459000.5",
        "eccentricity": ".4681129420701206",
        "semi_major_axis": "2.022638855223569",
        "inclination": "6.659965747415916",
        "ascending_node_longitude": "80.99861017936114",
        "orbital_period": "1050.693258307168",
        "perihelion_distance": "1.075815429959523",
        "perihelion_argument": "192.3026500470978",
        "aphelion_distance": "2.969462280487615",
        "perihelion_time": "2459345.306012825267",
        "mean_anomaly": "241.8587978597204",
        "mean_motion": ".342630922158972",
        "equinox": "J2000",
        "orbit_class": {
            "orbit_class_type": "AMO",
            "orbit_class_description": "Near-Earth asteroid orbits similar to that of 1221 Amor",
            "orbit_class_range": "1.017 AU < q (perihelion) < 1.3 AU"
        }
    },
    "is_sentry_object": false
}